{
    "CCSDS_OMM_VERS": "3.0",
    "COMMENT": "GENERATED VIA SPACE-TRACK.ORG API",
    "CREATION_DATE": "2025-11-24T07:26:19",
    "ORIGINATOR": "18 SPCS",
    "OBJECT_NAME": "BEIDOU 16",
    "OBJECT_ID": "2012-059A",
    "CENTER_NAME": "EARTH",
    "REF_FRAME": "TEME",
    "TIME_SYSTEM": "UTC",
    "MEAN_ELEMENT_THEORY": "SGP4",
    "EPOCH": "2025-11-23T23:00:27.150048",
    "MEAN_MOTION": "1.00273541",
    "ECCENTRICITY": "0.00071030",
    "INCLINATION": "3.8987",
    "RA_OF_ASC_NODE": "75.6872",
    "ARG_OF_PERICENTER": "295.3338",
    "MEAN_ANOMALY": "121.3154",
    "EPHEMERIS_TYPE": "0",
    "CLASSIFICATION_TYPE": "U",
    "NORAD_CAT_ID": "38953",
    "ELEMENT_SET_NO": "999",
    "REV_AT_EPOCH": "4785",
    "BSTAR": "0.00000000000000",
    "MEAN_MOTION_DOT": "-0.00000156",
    "MEAN_MOTION_DDOT": "0.0000000000000",
    "SEMIMAJOR_AXIS": "42164.240",
    "PERIOD": "1436.072",
    "APOAPSIS": "35816.054",
    "PERIAPSIS": "35756.155",
    "OBJECT_TYPE": "PAYLOAD",
    "RCS_SIZE": "LARGE",
    "COUNTRY_CODE": "PRC",
    "LAUNCH_DATE": "2012-10-25",
    "SITE": "XSC",
    "DECAY_DATE": null,
    "FILE": "4896942",
    "GP_ID": "303366075",
    "TLE_LINE0": "0 BEIDOU 16",
    "TLE_LINE1": "1 38953U 12059A   25327.95864757 -.00000156  00000-0  00000+0 0  9997",
    "TLE_LINE2": "2 38953   3.8987  75.6872 0007103 295.3338 121.3154  1.00273541 47858"
}